NORAD_CAT_ID,OBJECT_NAME,OBJECT_TYPE,EPOCH,MEAN_MOTION,ECCENTRICITY,INCLINATION,RA_OF_ASC_NODE,ARG_OF_PERICENTER,MEAN_ANOMALY,BSTAR,MEAN_MOTION_DOT,MEAN_MOTION_DDOT,TLE_LINE0,TLE_LINE1,TLE_LINE2,SEMIMAJOR_AXIS,PERIOD,APOGEE,PERIGEE,DECAYED
53389.0,STARLINK-4523,PAYLOAD,2023-06-18 15:47:06,15.0884855,9.93e-05,53.2176,270.9929,77.817,282.2933,3.5137e-05,2.72e-06,0.0,0 STARLINK-4523,1 53389U 22097B   23169.65770847  .00000272  00000-0  35137-4 0  9997,2 53389  53.2176 270.9929 0000993  77.8170 282.2933 15.08848550 47805,6917.854,95.437,540.406,539.032,0.0
53389.0,STARLINK-4523,PAYLOAD,2023-06-19 06:05:34,15.08850341,0.0001072,53.2172,268.3172,70.302,289.8088,-8.7039e-05,-1.673e-05,0.0,0 STARLINK-4523,1 53389U 22097B   23170.25386700 -.00001673  00000-0 -87039-4 0  9992,2 53389  53.2172 268.3172 0001072  70.3020 289.8088 15.08850341 48540,6917.849,95.437,540.455,538.972,0.0
53389.0,STARLINK-4523,PAYLOAD,2023-06-19 23:34:49,15.088445,0.0001043,53.2165,265.0462,69.2678,290.8425,0.00023883,3.516e-05,0.0,0 STARLINK-4523,1 53389U 22097B   23170.98251351  .00003516  00000-0  23883-3 0  9997,2 53389  53.2165 265.0462 0001043  69.2678 290.8425 15.08844500 48000,6917.867,95.437,540.453,539.01,0.0
53389.0,STARLINK-4523,PAYLOAD,2023-06-20 12:17:54,15.0884525,0.0001134,53.2179,262.6684,70.2259,289.8855,0.00010286,1.35e-05,0.0,0 STARLINK-4523,1 53389U 22097B   23171.51243309  .00001350  00000-0  10286-3 0  9998,2 53389  53.2179 262.6684 0001134  70.2259 289.8855 15.08845250 48730,6917.864,95.437,540.514,538.945,0.0
53389.0,STARLINK-4523,PAYLOAD,2023-06-20 15:28:40,15.08846525,0.0001155,53.2178,262.0734,70.652,289.4597,6.1643e-05,6.94e-06,0.0,0 STARLINK-4523,1 53389U 22097B   23171.64491199  .00000694  00000-0  61643-4 0  9998,2 53389  53.2178 262.0734 0001155  70.6520 289.4597 15.08846525 48754,6917.86,95.437,540.524,538.926,0.0
53389.0,STARLINK-4523,PAYLOAD,2023-06-20 23:25:36,15.0884,0.0001129,53.2165,260.5861,73.0252,287.0864,6.4398e-06,-1.85e-06,0.0,0 STARLINK-4523,1 53389U 22097B   23171.97611516 -.00000185  00000-0  64398-5 0  9998,2 53389  53.2165 260.5861 0001129  73.0252 287.0864 15.08840000 48151,6917.88,95.438,540.526,538.964,0.0
53389.0,STARLINK-4523,PAYLOAD,2023-06-21 12:08:41,15.08846128,0.0001055,53.2171,258.2053,79.1993,280.9118,1.2563e-05,-8.8e-07,0.0,0 STARLINK-4523,1 53389U 22097B   23172.50603345 -.00000088  00000-0  12563-4 0  9997,2 53389  53.2171 258.2053 0001055  79.1993 280.9118 15.08846128 48883,6917.862,95.437,540.456,538.997,0.0
53389.0,STARLINK-4523,PAYLOAD,2023-06-22 10:24:04,15.08850244,0.0001181,53.2169,254.0427,78.8798,281.2327,-6.8815e-05,-1.383e-05,0.0,0 STARLINK-4523,1 53389U 22097B   23173.43339077 -.00001383  00000-0 -68815-4 0  9999,2 53389  53.2169 254.0427 0001181  78.8798 281.2327 15.08850244 48372,6917.849,95.437,540.531,538.897,0.0
53389.0,STARLINK-4523,PAYLOAD,2023-06-23 11:50:15,15.08844624,0.000104,53.2173,249.2857,86.177,273.9341,0.00012168,1.65e-05,0.0,0 STARLINK-4523,1 53389U 22097B   23174.49323118  .00001650  00000-0  12168-3 0  9999,2 53389  53.2173 249.2857 0001040  86.1770 273.9341 15.08844624 48533,6917.866,95.437,540.451,539.012,0.0
53389.0,STARLINK-4523,PAYLOAD,2023-06-24 08:30:16,15.08834224,0.0001002,53.2169,245.4201,86.6554,273.4553,1.657e-05,-2.4e-07,0.0,0 STARLINK-4523,1 53389U 22097B   23175.35436092 -.00000024  00000-0  16570-4 0  9998,2 53389  53.2169 245.4201 0001002  86.6554 273.4553 15.08834224 48661,6917.898,95.438,540.456,539.07,0.0
53389.0,STARLINK-4523,PAYLOAD,2023-06-24 14:51:48,15.0884107,0.0001004,53.2162,244.2291,88.5413,271.5694,5.7551e-05,6.28e-06,0.0,0 STARLINK-4523,1 53389U 22097B   23175.61931584  .00000628  00000-0  57551-4 0  9996,2 53389  53.2162 244.2291 0001004  88.5413 271.5694 15.08841070 48704,6917.877,95.437,540.437,539.048,0.0
53389.0,STARLINK-4523,PAYLOAD,2023-06-26 03:25:41,15.08832951,0.0001082,53.2169,237.3925,93.2057,266.9058,0.00011715,1.577e-05,0.0,0 STARLINK-4523,1 53389U 22097B   23177.14284142  .00001577  00000-0  11715-3 0  9992,2 53389  53.2169 237.3925 0001082  93.2057 266.9058 15.08832951 48936,6917.902,95.438,540.515,539.018,0.0
53389.0,STARLINK-4523,PAYLOAD,2023-06-27 11:13:24,15.08841018,0.0001116,53.2171,231.4444,92.0251,268.0869,1.5227e-05,-4.5e-07,0.0,0 STARLINK-4523,1 53389U 22097B   23178.46764149 -.00000045  00000-0  15227-4 0  9991,2 53389  53.2171 231.4444 0001116  92.0251 268.0869 15.08841018 49131,6917.877,95.437,540.514,538.97,0.0
53389.0,STARLINK-4523,PAYLOAD,2023-06-27 20:45:43,15.0881778,0.0001239,53.2169,229.6594,94.8081,265.3052,0.00029412,4.393e-05,0.0,0 STARLINK-4523,1 53389U 22097B   23178.86509027  .00004393  00000-0  29412-3 0  9996,2 53389  53.2169 229.6594 0001239  94.8081 265.3052 15.08817780 49199,6917.948,95.439,540.67,538.956,0.0
53389.0,STARLINK-4523,PAYLOAD,2023-06-28 09:28:48,15.08838906,0.0001116,53.2165,227.2799,87.8721,272.2399,5.3436e-05,5.63e-06,0.0,0 STARLINK-4523,1 53389U 22097B   23179.39500297  .00000563  00000-0  53436-4 0  9994,2 53389  53.2165 227.2799 0001116  87.8721 272.2399 15.08838906 49276,6917.884,95.438,540.521,538.977,0.0
53389.0,STARLINK-4523,PAYLOAD,2023-06-29 10:54:58,15.08843677,0.0001122,53.2164,222.5226,83.7123,276.3997,7.3561e-05,8.83e-06,0.0,0 STARLINK-4523,1 53389U 22097B   23180.45483927  .00000883  00000-0  73561-4 0  9999,2 53389  53.2164 222.5226 0001122  83.7123 276.3997 15.08843677 49434,6917.869,95.437,540.51,538.958,0.0
53389.0,STARLINK-4523,PAYLOAD,2023-06-30 12:21:08,15.08842515,0.0001086,53.2162,217.7647,86.4971,273.6146,4.615e-05,4.47e-06,0.0,0 STARLINK-4523,1 53389U 22097B   23181.51467916  .00000447  00000-0  46150-4 0  9997,2 53389  53.2162 217.7647 0001086  86.4971 273.6146 15.08842515 49598,6917.873,95.437,540.489,538.986,0.0
53389.0,STARLINK-4523,PAYLOAD,2023-07-01 01:04:14,15.08835499,0.0001155,53.2163,215.3849,91.8199,268.2925,-4.4146e-05,-9.9e-06,0.0,0 STARLINK-4523,1 53389U 22097B   23182.04460656 -.00000990  00000-0 -44146-4 0  9998,2 53389  53.2163 215.3849 0001155  91.8199 268.2925 15.08835499 49673,6917.894,95.438,540.558,538.96,0.0
53389.0,STARLINK-4523,PAYLOAD,2023-07-02 02:30:24,15.08835796,0.0001156,53.2163,210.628,75.352,284.76,-2.2796e-06,-3.24e-06,0.0,0 STARLINK-4523,1 53389U 22097B   23183.10444850 -.00000324  00000-0 -22796-5 0  9993,2 53389  53.2163 210.6280 0001156  75.3520 284.7600 15.08835796 49837,6917.893,95.438,540.558,538.959,0.0
53389.0,STARLINK-4523,PAYLOAD,2023-07-03 10:18:06,15.08837715,0.0001148,53.2163,204.6809,72.9011,287.2107,9.8807e-05,1.285e-05,0.0,0 STARLINK-4523,1 53389U 22097B   23184.42924735  .00001285  00000-0  98807-4 0  9994,2 53389  53.2163 204.6809 0001148  72.9011 287.2107 15.08837715 50033,6917.887,95.438,540.547,538.958,0.0
53389.0,STARLINK-4523,PAYLOAD,2023-07-04 18:05:49,15.08840281,0.0001147,53.2162,198.7336,74.813,285.2989,4.2685e-05,3.92e-06,0.0,0 STARLINK-4523,1 53389U 22097B   23185.75404830  .00000392  00000-0  42685-4 0  9991,2 53389  53.2162 198.7336 0001147  74.8130 285.2989 15.08840281 50232,6917.88,95.438,540.538,538.951,0.0
53389.0,STARLINK-4523,PAYLOAD,2023-07-06 00:18:09,15.08839327,0.0001186,53.216,193.0841,74.8345,285.2779,8.332e-06,-1.55e-06,0.0,0 STARLINK-4523,1 53389U 22097B   23187.01260905 -.00000155  00000-0  83320-5 0  9995,2 53389  53.2160 193.0841 0001186  74.8345 285.2779 15.08839327 50427,6917.882,95.438,540.568,538.927,0.0
53389.0,STARLINK-4523,PAYLOAD,2023-07-07 06:30:28,15.08843383,0.0001199,53.2159,187.4338,75.4626,284.6499,5.8607e-05,6.45e-06,0.0,0 STARLINK-4523,1 53389U 22097B   23188.27116466  .00000645  00000-0  58607-4 0  9998,2 53389  53.2159 187.4338 0001199  75.4626 284.6499 15.08843383 50616,6917.87,95.437,540.565,538.906,0.0
53389.0,STARLINK-4523,PAYLOAD,2023-07-07 22:24:20,15.08838601,0.0001172,53.216,184.4608,71.8798,288.2321,4.8981e-05,4.92e-06,0.0,0 STARLINK-4523,1 53389U 22097B   23188.93356743  .00000492  00000-0  48981-4 0  9999,2 53389  53.2160 184.4608 0001172  71.8798 288.2321 15.08838601 50718,6917.885,95.438,540.56,538.939,0.0
53389.0,STARLINK-4523,PAYLOAD,2023-07-09 03:01:17,15.08837933,0.0001241,53.2161,179.1073,77.335,282.7781,-1.6229e-05,-5.46e-06,0.0,0 STARLINK-4523,1 53389U 22097B   23190.12589158 -.00000546  00000-0 -16229-4 0  9993,2 53389  53.2161 179.1073 0001241  77.3350 282.7781 15.08837933 50893,6917.887,95.438,540.61,538.893,0.0
53389.0,STARLINK-4523,PAYLOAD,2023-07-09 09:22:54,15.08779804,0.0001432,53.2163,177.9183,72.4826,287.6322,-0.00046759,-7.71e-05,0.0,0 STARLINK-4523,1 53389U 22097B   23190.39090871 -.00007710  00000-0 -46759-3 0  9991,2 53389  53.2163 177.9183 0001432  72.4826 287.6322 15.08779804 50931,6918.064,95.441,540.92,538.939,0.0
53389.0,STARLINK-4523,PAYLOAD,2023-07-10 02:52:05,15.08830051,0.0001868,53.2164,174.6471,42.0275,318.086,2.4059e-05,9.5e-07,0.0,0 STARLINK-4523,1 53389U 22097B   23191.11951108  .00000095  00000-0  24059-4 0  9998,2 53389  53.2164 174.6471 0001868  42.0275 318.0860 15.08830051 51041,6917.911,95.438,541.068,538.484,0.0
53389.0,STARLINK-4523,PAYLOAD,2023-07-10 06:02:51,15.0883713,0.0001629,53.2162,174.0524,61.8218,298.2939,7.9889e-05,9.84e-06,0.0,0 STARLINK-4523,1 53389U 22097B   23191.25198481  .00000984  00000-0  79889-4 0  9998,2 53389  53.2162 174.0524 0001629  61.8218 298.2939 15.08837130 51066,6917.889,95.438,540.881,538.627,0.0
53389.0,STARLINK-4523,PAYLOAD,2023-07-11 07:29:01,15.08847573,0.0001659,53.2162,169.2948,58.558,301.5574,0.00017088,2.433e-05,0.0,0 STARLINK-4523,1 53389U 22097B   23192.31181723  .00002433  00000-0  17088-3 0  9990,2 53389  53.2162 169.2948 0001659  58.5580 301.5574 15.08847573 51223,6917.857,95.437,540.87,538.575,0.0
53389.0,STARLINK-4523,PAYLOAD,2023-07-11 15:25:57,15.08816787,0.0001819,53.2165,167.8082,62.6134,297.5043,0.00051441,7.903e-05,0.0,0 STARLINK-4523,1 53389U 22097B   23192.64303018  .00007903  00000-0  51441-3 0  9997,2 53389  53.2165 167.8082 0001819  62.6134 297.5043 15.08816787 51271,6917.951,95.439,541.075,538.558,0.0
